0 COSMOS 2251 DEB
1 36068U 93036AYF 13287.28179092  .00014859  00000-0  30518-2 0  2824
2 36068 074.0095 141.7498 0181579 116.7468 249.9059 14.50725971224162
0 COSMOS 2251 DEB
1 36068U 93036AYF 13292.93524154  .00028283  00000-0  57913-2 0  2830
2 36068 073.9843 131.0710 0177890 101.7407 263.2174 14.51114653224985
